[{"OBJECT_NAME":"STARLINK-33718","OBJECT_ID":"2025-070S","EPOCH":"2026-03-09T14:00:21.253248","MEAN_MOTION":15.27617231,"ECCENTRICITY":0.00015152,"INCLINATION":43.0027,"RA_OF_ASC_NODE":260.0952,"ARG_OF_PERICENTER":259.2306,"MEAN_ANOMALY":100.8375,"EPHEMERIS_TYPE":0,"CLASSIFICATION_TYPE":"U","NORAD_CAT_ID":63476,"ELEMENT_SET_NO":999,"REV_AT_EPOCH":5296,"BSTAR":0.0010525082,"MEAN_MOTION_DOT":0.00028847,"MEAN_MOTION_DDOT":0},{"OBJECT_NAME":"WT 1B","OBJECT_ID":"2019-032G","EPOCH":"2026-03-09T21:42:21.881088","MEAN_MOTION":15.25021485,"ECCENTRICITY":0.0008099,"INCLINATION":44.9738,"RA_OF_ASC_NODE":242.0209,"ARG_OF_PERICENTER":49.7728,"MEAN_ANOMALY":310.3861,"EPHEMERIS_TYPE":0,"CLASSIFICATION_TYPE":"U","NORAD_CAT_ID":44316,"ELEMENT_SET_NO":999,"REV_AT_EPOCH":37191,"BSTAR":0.00065022477,"MEAN_MOTION_DOT":0.00016297,"MEAN_MOTION_DDOT":0}]
